[
  {
    "CCSDS_OMM_VERS": "3.0",
    "COMMENT": "GENERATED VIA SPACE-TRACK.ORG API",
    "CREATION_DATE": "2026-02-19T17:59:09",
    "ORIGINATOR": "18 SPCS",
    "OBJECT_NAME": "FENGYUN 1C DEB",
    "OBJECT_ID": "1999-025BPF",
    "CENTER_NAME": "EARTH",
    "REF_FRAME": "TEME",
    "TIME_SYSTEM": "UTC",
    "MEAN_ELEMENT_THEORY": "SGP4",
    "EPOCH": "2026-02-19T15:28:35.180832",
    "MEAN_MOTION": "14.57326449",
    "ECCENTRICITY": "0.01375100",
    "INCLINATION": "98.9413",
    "RA_OF_ASC_NODE": "197.5686",
    "ARG_OF_PERICENTER": "273.4562",
    "MEAN_ANOMALY": "149.4806",
    "EPHEMERIS_TYPE": "0",
    "CLASSIFICATION_TYPE": "U",
    "NORAD_CAT_ID": "31297",
    "ELEMENT_SET_NO": "999",
    "REV_AT_EPOCH": "304",
    "BSTAR": "0.00030756033000",
    "MEAN_MOTION_DOT": "0.00001522",
    "MEAN_MOTION_DDOT": "0.0000000000000",
    "SEMIMAJOR_AXIS": "7079.957",
    "PERIOD": "98.811",
    "APOAPSIS": "799.178",
    "PERIAPSIS": "604.465",
    "OBJECT_TYPE": "DEBRIS",
    "RCS_SIZE": "SMALL",
    "COUNTRY_CODE": "PRC",
    "LAUNCH_DATE": "1999-05-10",
    "SITE": "TSC",
    "DECAY_DATE": null,
    "FILE": "5039972",
    "GP_ID": "313165226",
    "TLE_LINE0": "0 FENGYUN 1C DEB",
    "TLE_LINE1": "1 31297U 99025BPF 26050.64485163  .00001522  00000-0  30756-3 0  9991",
    "TLE_LINE2": "2 31297  98.9413 197.5686 0137510 273.4562 149.4806 14.57326449  3040"
  },
  {
    "CCSDS_OMM_VERS": "3.0",
    "COMMENT": "GENERATED VIA SPACE-TRACK.ORG API",
    "CREATION_DATE": "2026-02-19T17:59:09",
    "ORIGINATOR": "18 SPCS",
    "OBJECT_NAME": "FENGYUN 1C DEB",
    "OBJECT_ID": "1999-025ADG",
    "CENTER_NAME": "EARTH",
    "REF_FRAME": "TEME",
    "TIME_SYSTEM": "UTC",
    "MEAN_ELEMENT_THEORY": "SGP4",
    "EPOCH": "2026-02-19T15:26:00.912768",
    "MEAN_MOTION": "13.99019485",
    "ECCENTRICITY": "0.00718883",
    "INCLINATION": "99.1533",
    "RA_OF_ASC_NODE": "113.3842",
    "ARG_OF_PERICENTER": "71.0452",
    "MEAN_ANOMALY": "81.8725",
    "EPHEMERIS_TYPE": "0",
    "CLASSIFICATION_TYPE": "U",
    "NORAD_CAT_ID": "30393",
    "ELEMENT_SET_NO": "999",
    "REV_AT_EPOCH": "97293",
    "BSTAR": "0.00014530833000",
    "MEAN_MOTION_DOT": "0.00000170",
    "MEAN_MOTION_DDOT": "0.0000000000000",
    "SEMIMAJOR_AXIS": "7275.329",
    "PERIOD": "102.929",
    "APOAPSIS": "949.496",
    "PERIAPSIS": "844.893",
    "OBJECT_TYPE": "DEBRIS",
    "RCS_SIZE": "SMALL",
    "COUNTRY_CODE": "PRC",
    "LAUNCH_DATE": "1999-05-10",
    "SITE": "TSC",
    "DECAY_DATE": null,
    "FILE": "5039972",
    "GP_ID": "313164429",
    "TLE_LINE0": "0 FENGYUN 1C DEB",
    "TLE_LINE1": "1 30393U 99025ADG 26050.64306612  .00000170  00000-0  14531-3 0  9999",
    "TLE_LINE2": "2 30393  99.1533 113.3842 0071888  71.0452  81.8725 13.99019485972933"
  },
  {
    "CCSDS_OMM_VERS": "3.0",
    "COMMENT": "GENERATED VIA SPACE-TRACK.ORG API",
    "CREATION_DATE": "2026-02-19T17:59:09",
    "ORIGINATOR": "18 SPCS",
    "OBJECT_NAME": "CZ-4 DEB",
    "OBJECT_ID": "1999-057MR",
    "CENTER_NAME": "EARTH",
    "REF_FRAME": "TEME",
    "TIME_SYSTEM": "UTC",
    "MEAN_ELEMENT_THEORY": "SGP4",
    "EPOCH": "2026-02-19T15:25:54.500160",
    "MEAN_MOTION": "14.47603056",
    "ECCENTRICITY": "0.00752799",
    "INCLINATION": "98.5954",
    "RA_OF_ASC_NODE": "105.1273",
    "ARG_OF_PERICENTER": "82.6424",
    "MEAN_ANOMALY": "72.8849",
    "EPHEMERIS_TYPE": "0",
    "CLASSIFICATION_TYPE": "U",
    "NORAD_CAT_ID": "27677",
    "ELEMENT_SET_NO": "999",
    "REV_AT_EPOCH": "25288",
    "BSTAR": "0.00011393262000",
    "MEAN_MOTION_DOT": "0.00000386",
    "MEAN_MOTION_DDOT": "0.0000000000000",
    "SEMIMAJOR_AXIS": "7111.625",
    "PERIOD": "99.475",
    "APOAPSIS": "787.026",
    "PERIAPSIS": "679.954",
    "OBJECT_TYPE": "DEBRIS",
    "RCS_SIZE": "SMALL",
    "COUNTRY_CODE": "PRC",
    "LAUNCH_DATE": "1999-10-14",
    "SITE": "TSC",
    "DECAY_DATE": null,
    "FILE": "5039972",
    "GP_ID": "313162756",
    "TLE_LINE0": "0 CZ-4 DEB",
    "TLE_LINE1": "1 27677U 99057MR  26050.64299190  .00000386  00000-0  11393-3 0  9999",
    "TLE_LINE2": "2 27677  98.5954 105.1273 0075280  82.6424  72.8849 14.47603056252887"
  },
  {
    "CCSDS_OMM_VERS": "3.0",
    "COMMENT": "GENERATED VIA SPACE-TRACK.ORG API",
    "CREATION_DATE": "2026-02-19T17:59:09",
    "ORIGINATOR": "18 SPCS",
    "OBJECT_NAME": "FENGYUN 1C DEB",
    "OBJECT_ID": "1999-025QG",
    "CENTER_NAME": "EARTH",
    "REF_FRAME": "TEME",
    "TIME_SYSTEM": "UTC",
    "MEAN_ELEMENT_THEORY": "SGP4",
    "EPOCH": "2026-02-19T15:25:43.814208",
    "MEAN_MOTION": "14.00836072",
    "ECCENTRICITY": "0.00880265",
    "INCLINATION": "99.0180",
    "RA_OF_ASC_NODE": "110.3644",
    "ARG_OF_PERICENTER": "109.1809",
    "MEAN_ANOMALY": "43.6278",
    "EPHEMERIS_TYPE": "0",
    "CLASSIFICATION_TYPE": "U",
    "NORAD_CAT_ID": "30079",
    "ELEMENT_SET_NO": "999",
    "REV_AT_EPOCH": "97502",
    "BSTAR": "0.00011083592000",
    "MEAN_MOTION_DOT": "0.00000128",
    "MEAN_MOTION_DDOT": "0.0000000000000",
    "SEMIMAJOR_AXIS": "7269.038",
    "PERIOD": "102.796",
    "APOAPSIS": "954.890",
    "PERIAPSIS": "826.917",
    "OBJECT_TYPE": "DEBRIS",
    "RCS_SIZE": "SMALL",
    "COUNTRY_CODE": "PRC",
    "LAUNCH_DATE": "1999-05-10",
    "SITE": "TSC",
    "DECAY_DATE": null,
    "FILE": "5039972",
    "GP_ID": "313163814",
    "TLE_LINE0": "0 FENGYUN 1C DEB",
    "TLE_LINE1": "1 30079U 99025QG  26050.64286822  .00000128  00000-0  11084-3 0  9993",
    "TLE_LINE2": "2 30079  99.0180 110.3644 0088027 109.1809  43.6278 14.00836072975024"
  },
  {
    "CCSDS_OMM_VERS": "3.0",
    "COMMENT": "GENERATED VIA SPACE-TRACK.ORG API",
    "CREATION_DATE": "2026-02-19T17:59:09",
    "ORIGINATOR": "18 SPCS",
    "OBJECT_NAME": "CZ-4 DEB",
    "OBJECT_ID": "1990-081BN",
    "CENTER_NAME": "EARTH",
    "REF_FRAME": "TEME",
    "TIME_SYSTEM": "UTC",
    "MEAN_ELEMENT_THEORY": "SGP4",
    "EPOCH": "2026-02-19T15:25:40.154304",
    "MEAN_MOTION": "14.01615253",
    "ECCENTRICITY": "0.00808505",
    "INCLINATION": "99.3430",
    "RA_OF_ASC_NODE": "202.1104",
    "ARG_OF_PERICENTER": "140.8852",
    "MEAN_ANOMALY": "280.6808",
    "EPHEMERIS_TYPE": "0",
    "CLASSIFICATION_TYPE": "U",
    "NORAD_CAT_ID": "20902",
    "ELEMENT_SET_NO": "999",
    "REV_AT_EPOCH": "79843",
    "BSTAR": "0.00077462874000",
    "MEAN_MOTION_DOT": "0.00001161",
    "MEAN_MOTION_DDOT": "0.0000000000000",
    "SEMIMAJOR_AXIS": "7266.344",
    "PERIOD": "102.739",
    "APOAPSIS": "946.958",
    "PERIAPSIS": "829.460",
    "OBJECT_TYPE": "DEBRIS",
    "RCS_SIZE": "SMALL",
    "COUNTRY_CODE": "PRC",
    "LAUNCH_DATE": "1990-09-03",
    "SITE": "TSC",
    "DECAY_DATE": null,
    "FILE": "5039972",
    "GP_ID": "313160528",
    "TLE_LINE0": "0 CZ-4 DEB",
    "TLE_LINE1": "1 20902U 90081BN  26050.64282586  .00001161  00000-0  77463-3 0  9994",
    "TLE_LINE2": "2 20902  99.3430 202.1104 0080850 140.8852 280.6808 14.01615253798433"
  },
  {
    "CCSDS_OMM_VERS": "3.0",
    "COMMENT": "GENERATED VIA SPACE-TRACK.ORG API",
    "CREATION_DATE": "2026-02-19T17:59:09",
    "ORIGINATOR": "18 SPCS",
    "OBJECT_NAME": "CZ-6A DEB",
    "OBJECT_ID": "2024-140TE",
    "CENTER_NAME": "EARTH",
    "REF_FRAME": "TEME",
    "TIME_SYSTEM": "UTC",
    "MEAN_ELEMENT_THEORY": "SGP4",
    "EPOCH": "2026-02-19T15:25:30.851616",
    "MEAN_MOTION": "14.60338190",
    "ECCENTRICITY": "0.00923366",
    "INCLINATION": "89.0411",
    "RA_OF_ASC_NODE": "287.2160",
    "ARG_OF_PERICENTER": "308.5731",
    "MEAN_ANOMALY": "50.7234",
    "EPHEMERIS_TYPE": "0",
    "CLASSIFICATION_TYPE": "U",
    "NORAD_CAT_ID": "61293",
    "ELEMENT_SET_NO": "999",
    "REV_AT_EPOCH": "7858",
    "BSTAR": "0.00093882681000",
    "MEAN_MOTION_DOT": "0.00004834",
    "MEAN_MOTION_DDOT": "0.0000000000000",
    "SEMIMAJOR_AXIS": "7070.219",
    "PERIOD": "98.607",
    "APOAPSIS": "757.368",
    "PERIAPSIS": "626.800",
    "OBJECT_TYPE": "DEBRIS",
    "RCS_SIZE": "SMALL",
    "COUNTRY_CODE": "PRC",
    "LAUNCH_DATE": "2024-08-06",
    "SITE": "TSC",
    "DECAY_DATE": null,
    "FILE": "5039972",
    "GP_ID": "313181495",
    "TLE_LINE0": "0 CZ-6A DEB",
    "TLE_LINE1": "1 61293U 24140TE  26050.64271819  .00004834  00000-0  93883-3 0  9996",
    "TLE_LINE2": "2 61293  89.0411 287.2160 0092337 308.5731  50.7234 14.60338190 78587"
  },
  {
    "CCSDS_OMM_VERS": "3.0",
    "COMMENT": "GENERATED VIA SPACE-TRACK.ORG API",
    "CREATION_DATE": "2026-02-19T17:59:09",
    "ORIGINATOR": "18 SPCS",
    "OBJECT_NAME": "CZ-6A DEB",
    "OBJECT_ID": "2024-140QQ",
    "CENTER_NAME": "EARTH",
    "REF_FRAME": "TEME",
    "TIME_SYSTEM": "UTC",
    "MEAN_ELEMENT_THEORY": "SGP4",
    "EPOCH": "2026-02-19T15:25:14.264544",
    "MEAN_MOTION": "14.24378280",
    "ECCENTRICITY": "0.00803274",
    "INCLINATION": "89.1355",
    "RA_OF_ASC_NODE": "296.8140",
    "ARG_OF_PERICENTER": "255.9049",
    "MEAN_ANOMALY": "103.3206",
    "EPHEMERIS_TYPE": "0",
    "CLASSIFICATION_TYPE": "U",
    "NORAD_CAT_ID": "61146",
    "ELEMENT_SET_NO": "999",
    "REV_AT_EPOCH": "7765",
    "BSTAR": "0.00127943850000",
    "MEAN_MOTION_DOT": "0.00003071",
    "MEAN_MOTION_DDOT": "0.0000000000000",
    "SEMIMAJOR_AXIS": "7188.721",
    "PERIOD": "101.097",
    "APOAPSIS": "868.331",
    "PERIAPSIS": "752.841",
    "OBJECT_TYPE": "DEBRIS",
    "RCS_SIZE": "SMALL",
    "COUNTRY_CODE": "PRC",
    "LAUNCH_DATE": "2024-08-06",
    "SITE": "TSC",
    "DECAY_DATE": null,
    "FILE": "5039972",
    "GP_ID": "313181934",
    "TLE_LINE0": "0 CZ-6A DEB",
    "TLE_LINE1": "1 61146U 24140QQ  26050.64252621  .00003071  00000-0  12794-2 0  9996",
    "TLE_LINE2": "2 61146  89.1355 296.8140 0080327 255.9049 103.3206 14.24378280 77654"
  }
]